{"fetched_at":"2026-07-18T17:29:54.362Z","source":"https://celestrak.org/NORAD/elements/gp.php?NAME=GLOBAL&FORMAT=JSON","constellation":"blacksky-gen2","records":[{"OBJECT_NAME":"GLOBAL-2","OBJECT_ID":"2018-099BG","EPOCH":"2026-07-18T02:43:13.479744","CLASSIFICATION_TYPE":"U","MEAN_MOTION":15.08835756,"ECCENTRICITY":0.00072385,"INCLINATION":97.3547,"RA_OF_ASC_NODE":234.3409,"ARG_OF_PERICENTER":59.171,"MEAN_ANOMALY":301.0231,"EPHEMERIS_TYPE":0,"NORAD_CAT_ID":43812,"ELEMENT_SET_NO":999,"REV_AT_EPOCH":41657,"BSTAR":0.00011760957,"MEAN_MOTION_DOT":0.00001792,"MEAN_MOTION_DDOT":0},{"OBJECT_NAME":"GLOBAL-4","OBJECT_ID":"2019-054E","EPOCH":"2026-07-18T00:25:26.949792","CLASSIFICATION_TYPE":"U","MEAN_MOTION":15.67306952,"ECCENTRICITY":0.0005761,"INCLINATION":45.0054,"RA_OF_ASC_NODE":58.1115,"ARG_OF_PERICENTER":214.7212,"MEAN_ANOMALY":145.3311,"EPHEMERIS_TYPE":0,"NORAD_CAT_ID":44499,"ELEMENT_SET_NO":999,"REV_AT_EPOCH":38519,"BSTAR":0.0003649231,"MEAN_MOTION_DOT":0.00040123,"MEAN_MOTION_DDOT":0},{"OBJECT_NAME":"GLOBAL-9","OBJECT_ID":"2021-023G","EPOCH":"2026-07-18T01:13:30.503136","CLASSIFICATION_TYPE":"U","MEAN_MOTION":15.47684743,"ECCENTRICITY":0.00038259,"INCLINATION":44.9813,"RA_OF_ASC_NODE":76.9018,"ARG_OF_PERICENTER":188.7781,"MEAN_ANOMALY":171.3043,"EPHEMERIS_TYPE":0,"NORAD_CAT_ID":47971,"ELEMENT_SET_NO":999,"REV_AT_EPOCH":29972,"BSTAR":0.00024892501,"MEAN_MOTION_DOT":0.00012816,"MEAN_MOTION_DDOT":0},{"OBJECT_NAME":"GLOBAL-14","OBJECT_ID":"2021-106A","EPOCH":"2026-07-18T02:49:26.451264","CLASSIFICATION_TYPE":"U","MEAN_MOTION":15.51923,"ECCENTRICITY":0.0018212,"INCLINATION":42.0037,"RA_OF_ASC_NODE":107.0635,"ARG_OF_PERICENTER":243.2531,"MEAN_ANOMALY":116.645,"EPHEMERIS_TYPE":0,"NORAD_CAT_ID":49469,"ELEMENT_SET_NO":999,"REV_AT_EPOCH":26293,"BSTAR":0.00025989032,"MEAN_MOTION_DOT":0.00015825,"MEAN_MOTION_DDOT":0},{"OBJECT_NAME":"GLOBAL-12","OBJECT_ID":"2021-115BA","EPOCH":"2026-07-17T19:18:17.004672","CLASSIFICATION_TYPE":"U","MEAN_MOTION":15.55427236,"ECCENTRICITY":0.00029506,"INCLINATION":53.1935,"RA_OF_ASC_NODE":257.1125,"ARG_OF_PERICENTER":74.0317,"MEAN_ANOMALY":286.102,"EPHEMERIS_TYPE":0,"NORAD_CAT_ID":49772,"ELEMENT_SET_NO":999,"REV_AT_EPOCH":26066,"BSTAR":0.00023259971,"MEAN_MOTION_DOT":0.00015673,"MEAN_MOTION_DDOT":0},{"OBJECT_NAME":"GLOBAL-13","OBJECT_ID":"2021-115BB","EPOCH":"2026-07-17T11:47:16.393344","CLASSIFICATION_TYPE":"U","MEAN_MOTION":15.47163605,"ECCENTRICITY":0.0000385,"INCLINATION":53.1963,"RA_OF_ASC_NODE":270.4046,"ARG_OF_PERICENTER":151.9456,"MEAN_ANOMALY":208.1573,"EPHEMERIS_TYPE":0,"NORAD_CAT_ID":49773,"ELEMENT_SET_NO":999,"REV_AT_EPOCH":26045,"BSTAR":0.00021243,"MEAN_MOTION_DOT":0.0001054,"MEAN_MOTION_DDOT":0},{"OBJECT_NAME":"GLOBAL-17","OBJECT_ID":"2021-120A","EPOCH":"2026-07-18T02:02:01.355424","CLASSIFICATION_TYPE":"U","MEAN_MOTION":15.53807811,"ECCENTRICITY":0.00134773,"INCLINATION":41.9929,"RA_OF_ASC_NODE":224.9553,"ARG_OF_PERICENTER":113.44,"MEAN_ANOMALY":246.7864,"EPHEMERIS_TYPE":0,"NORAD_CAT_ID":49949,"ELEMENT_SET_NO":999,"REV_AT_EPOCH":25970,"BSTAR":0.00023536259,"MEAN_MOTION_DOT":0.00015279,"MEAN_MOTION_DDOT":0},{"OBJECT_NAME":"GLOBAL-16","OBJECT_ID":"2021-120B","EPOCH":"2026-07-18T06:28:56.582976","CLASSIFICATION_TYPE":"U","MEAN_MOTION":15.51567509,"ECCENTRICITY":0.00114647,"INCLINATION":41.9932,"RA_OF_ASC_NODE":228.1831,"ARG_OF_PERICENTER":104.6131,"MEAN_ANOMALY":255.5985,"EPHEMERIS_TYPE":0,"NORAD_CAT_ID":49950,"ELEMENT_SET_NO":999,"REV_AT_EPOCH":25967,"BSTAR":0.00021674574,"MEAN_MOTION_DOT":0.00012915,"MEAN_MOTION_DDOT":0},{"OBJECT_NAME":"GLOBAL-18","OBJECT_ID":"2022-034B","EPOCH":"2026-07-18T00:14:42.296064","CLASSIFICATION_TYPE":"U","MEAN_MOTION":15.47302188,"ECCENTRICITY":0.00045974,"INCLINATION":52.9816,"RA_OF_ASC_NODE":109.2095,"ARG_OF_PERICENTER":32.3908,"MEAN_ANOMALY":327.7379,"EPHEMERIS_TYPE":0,"NORAD_CAT_ID":52196,"ELEMENT_SET_NO":999,"REV_AT_EPOCH":24173,"BSTAR":0.00027518714,"MEAN_MOTION_DOT":0.0001386,"MEAN_MOTION_DDOT":0},{"OBJECT_NAME":"GLOBAL-19","OBJECT_ID":"2023-041B","EPOCH":"2026-07-17T20:55:19.597440","CLASSIFICATION_TYPE":"U","MEAN_MOTION":15.3872676,"ECCENTRICITY":0.00099572,"INCLINATION":42.0021,"RA_OF_ASC_NODE":22.8522,"ARG_OF_PERICENTER":235.1182,"MEAN_ANOMALY":124.8722,"EPHEMERIS_TYPE":0,"NORAD_CAT_ID":55982,"ELEMENT_SET_NO":999,"REV_AT_EPOCH":18665,"BSTAR":0.00021372374,"MEAN_MOTION_DOT":0.00008117,"MEAN_MOTION_DDOT":0},{"OBJECT_NAME":"GLOBAL-5","OBJECT_ID":"2023-041C","EPOCH":"2026-07-17T21:42:20.597184","CLASSIFICATION_TYPE":"U","MEAN_MOTION":15.38741423,"ECCENTRICITY":0.00089284,"INCLINATION":42.0016,"RA_OF_ASC_NODE":22.1868,"ARG_OF_PERICENTER":230.8493,"MEAN_ANOMALY":129.1554,"EPHEMERIS_TYPE":0,"NORAD_CAT_ID":55983,"ELEMENT_SET_NO":999,"REV_AT_EPOCH":18666,"BSTAR":0.00021998123,"MEAN_MOTION_DOT":0.00008365,"MEAN_MOTION_DDOT":0}]}
